NORAD_CAT_ID,OBJECT_NAME,OBJECT_TYPE,EPOCH,MEAN_MOTION,ECCENTRICITY,INCLINATION,RA_OF_ASC_NODE,ARG_OF_PERICENTER,MEAN_ANOMALY,BSTAR,MEAN_MOTION_DOT,MEAN_MOTION_DDOT,TLE_LINE0,TLE_LINE1,TLE_LINE2,SEMIMAJOR_AXIS,PERIOD,APOGEE,PERIGEE,DECAYED
52495.0,STARLINK-3905,PAYLOAD,2024-03-24 02:24:15,15.08864545,0.0001493,53.22,21.5206,90.6581,269.4582,0.00013406,1.848e-05,0.0,0 STARLINK-3905,1 52495U 22049AW  24084.10017960  .00001848  00000-0  13406-3 0  9992,2 52495  53.2200  21.5206 0001493  90.6581 269.4582 15.08864545104525,6917.805,95.436,540.703,538.638,0.0
52495.0,STARLINK-3905,PAYLOAD,2024-03-24 05:35:01,15.08866759,0.0001522,53.22,20.9235,91.4128,268.7038,0.00017663,2.526e-05,0.0,0 STARLINK-3905,1 52495U 22049AW  24084.23265593  .00002526  00000-0  17663-3 0  9996,2 52495  53.2200  20.9235 0001522  91.4128 268.7038 15.08866759104380,6917.799,95.436,540.716,538.611,0.0
52495.0,STARLINK-3905,PAYLOAD,2024-03-24 19:53:31,15.08837286,3.44e-05,53.2189,18.2584,82.5519,277.5513,0.00010206,1.337e-05,0.0,0 STARLINK-3905,1 52495U 22049AW  24084.82883813  .00001337  00000-0  10206-3 0  9997,2 52495  53.2189  18.2584 0000344  82.5519 277.5513 15.08837286104636,6917.889,95.438,539.992,539.516,0.0
52495.0,STARLINK-3905,PAYLOAD,2024-03-24 23:04:18,15.08829646,0.0001133,53.2186,17.6628,78.7949,281.317,-4.104e-05,-9.41e-06,0.0,0 STARLINK-3905,1 52495U 22049AW  24084.96132228 -.00000941  00000-0 -41040-4 0  9992,2 52495  53.2186  17.6628 0001133  78.7949 281.3170 15.08829646104493,6917.912,95.438,540.561,538.993,0.0
52495.0,STARLINK-3905,PAYLOAD,2024-03-25 02:15:04,15.08840947,0.0001287,53.2184,17.0631,112.9478,247.165,0.0001699,2.417e-05,0.0,0 STARLINK-3905,1 52495U 22049AW  24085.09379681  .00002417  00000-0  16990-3 0  9996,2 52495  53.2184  17.0631 0001287 112.9478 247.1650 15.08840947104677,6917.877,95.437,540.633,538.852,0.0
52495.0,STARLINK-3905,PAYLOAD,2024-03-25 22:55:05,15.08828707,0.0001563,53.2192,13.1941,112.9701,247.1456,-0.00029077,-4.911e-05,0.0,0 STARLINK-3905,1 52495U 22049AW  24085.95492642 -.00004911  00000-0 -29077-3 0  9997,2 52495  53.2192  13.1941 0001563 112.9701 247.1456 15.08828707104644,6917.915,95.438,540.861,538.699,0.0
52495.0,STARLINK-3905,PAYLOAD,2024-03-26 00:30:29,15.0883344,0.0001503,53.2193,12.8963,111.8254,248.2899,-0.00019309,-3.359e-05,0.0,0 STARLINK-3905,1 52495U 22049AW  24086.02117287 -.00003359  00000-0 -19309-3 0  9997,2 52495  53.2193  12.8963 0001503 111.8254 248.2899 15.08833440104812,6917.9,95.438,540.805,538.726,0.0
52495.0,STARLINK-3905,PAYLOAD,2024-03-26 22:45:51,15.08836336,0.0001711,53.2195,8.7364,113.851,246.2662,0.00022358,3.272e-05,0.0,0 STARLINK-3905,1 52495U 22049AW  24086.94851784  .00003272  00000-0  22358-3 0  9995,2 52495  53.2195   8.7364 0001711 113.8510 246.2662 15.08836336104791,6917.892,95.438,540.94,538.573,0.0
52495.0,STARLINK-3905,PAYLOAD,2024-03-27 01:56:36,15.08861116,0.0001571,53.2196,8.144,113.5339,246.5819,0.00043182,6.595e-05,0.0,0 STARLINK-3905,1 52495U 22049AW  24087.08097798  .00006595  00000-0  43182-3 0  9997,2 52495  53.2196   8.1440 0001571 113.5339 246.5819 15.08861116104972,6917.816,95.436,540.768,538.594,0.0
52495.0,STARLINK-3905,PAYLOAD,2024-03-27 11:28:53,15.08874896,0.0001151,53.2179,6.3531,69.8041,290.3075,0.00045459,6.961e-05,0.0,0 STARLINK-3905,1 52495U 22049AW  24087.47839982  .00006961  00000-0  45459-3 0  9995,2 52495  53.2179   6.3531 0001151  69.8041 290.3075 15.08874896105039,6917.774,95.435,540.435,538.842,0.0
52495.0,STARLINK-3905,PAYLOAD,2024-03-27 17:50:31,15.08813306,0.0002101,53.2189,5.1686,93.8109,266.3124,2.5455e-05,1.17e-06,0.0,0 STARLINK-3905,1 52495U 22049AW  24087.74341506  .00000117  00000-0  25455-4 0  9997,2 52495  53.2189   5.1686 0002101  93.8109 266.3124 15.08813306105077,6917.962,95.439,541.28,538.374,0.0
52495.0,STARLINK-3905,PAYLOAD,2024-03-27 22:36:41,15.08809464,0.00016,53.2189,4.2777,96.8658,263.2517,-5.0876e-05,-1.097e-05,0.0,0 STARLINK-3905,1 52495U 22049AW  24087.94214189 -.00001097  00000-0 -50876-4 0  9990,2 52495  53.2189   4.2777 0001600  96.8658 263.2517 15.08809464104940,6917.974,95.439,540.946,538.732,0.0
52495.0,STARLINK-3905,PAYLOAD,2024-03-28 03:22:49,15.08819129,0.0001374,53.2191,3.3815,118.7469,241.3662,4.8905e-05,4.9e-06,0.0,0 STARLINK-3905,1 52495U 22049AW  24088.14085355  .00000490  00000-0  48905-4 0  9998,2 52495  53.2191   3.3815 0001374 118.7469 241.3662 15.08819129105137,6917.944,95.439,540.76,538.859,0.0
52495.0,STARLINK-3905,PAYLOAD,2024-03-28 11:19:44,15.08837017,0.0001172,53.2194,1.8943,101.7368,258.3755,-4.8506e-05,-1.06e-05,0.0,0 STARLINK-3905,1 52495U 22049AW  24088.47204550 -.00001060  00000-0 -48506-4 0  9997,2 52495  53.2194   1.8943 0001172 101.7368 258.3755 15.08837017105183,6917.89,95.438,540.565,538.944,0.0
52495.0,STARLINK-3905,PAYLOAD,2024-03-28 22:27:26,15.0885294,0.0001343,53.2186,359.8148,72.6231,287.4908,-0.00026671,-4.532e-05,0.0,0 STARLINK-3905,1 52495U 22049AW  24088.93572609 -.00004532  00000-0 -26671-3 0  9996,2 52495  53.2186 359.8148 0001343  72.6231 287.4908 15.08852940105097,6917.841,95.437,540.635,538.777,0.0
52495.0,STARLINK-3905,PAYLOAD,2024-03-29 03:13:35,15.08864682,0.0001274,53.2192,358.9232,79.3388,280.7748,-0.0001557,-2.767e-05,0.0,0 STARLINK-3905,1 52495U 22049AW  24089.13443322 -.00002767  00000-0 -15570-3 0  9992,2 52495  53.2192 358.9232 0001274  79.3388 280.7748 15.08864682105283,6917.805,95.436,540.551,538.789,0.0
52495.0,STARLINK-3905,PAYLOAD,2024-03-29 17:32:03,15.08826522,0.0001587,53.2192,356.2494,78.4484,281.6686,0.00025357,3.748e-05,0.0,0 STARLINK-3905,1 52495U 22049AW  24089.73060104  .00003748  00000-0  25357-3 0  9993,2 52495  53.2192 356.2494 0001587  78.4484 281.6686 15.08826522105370,6917.922,95.438,540.884,538.689,0.0
52495.0,STARLINK-3905,PAYLOAD,2024-03-29 22:18:13,15.08826474,0.0001594,53.2193,355.3569,77.7973,282.3198,0.00023392,3.435e-05,0.0,0 STARLINK-3905,1 52495U 22049AW  24089.92932367  .00003435  00000-0  23392-3 0  9993,2 52495  53.2193 355.3569 0001594  77.7973 282.3198 15.08826474105245,6917.922,95.438,540.889,538.684,0.0
52495.0,STARLINK-3905,PAYLOAD,2024-03-30 11:01:17,15.08843179,0.0001152,53.2187,352.9761,91.0414,269.071,0.00015387,2.162e-05,0.0,0 STARLINK-3905,1 52495U 22049AW  24090.45923523  .00002162  00000-0  15387-3 0  9998,2 52495  53.2187 352.9761 0001152  91.0414 269.0710 15.08843179105483,6917.871,95.437,540.533,538.939,0.0
52495.0,STARLINK-3905,PAYLOAD,2024-03-30 17:22:51,15.08831111,0.0001999,53.2202,351.7888,79.3198,280.8019,2.0283e-05,3.5e-07,0.0,0 STARLINK-3905,1 52495U 22049AW  24090.72421003  .00000035  00000-0  20283-4 0  9993,2 52495  53.2202 351.7888 0001999  79.3198 280.8019 15.08831111105526,6917.908,95.438,541.155,538.39,0.0
52495.0,STARLINK-3905,PAYLOAD,2024-03-30 22:09:01,15.08829633,0.000165,53.2197,350.8975,78.9075,281.2103,7.8413e-06,-1.63e-06,0.0,0 STARLINK-3905,1 52495U 22049AW  24090.92293206 -.00000163  00000-0  78413-5 0  9999,2 52495  53.2197 350.8975 0001650  78.9075 281.2103 15.08829633105399,6917.912,95.438,540.919,538.636,0.0
52495.0,STARLINK-3905,PAYLOAD,2024-03-31 10:52:05,15.08848174,0.0001691,53.2214,348.5172,80.1616,279.9568,2.2148e-05,6.4e-07,0.0,0 STARLINK-3905,1 52495U 22049AW  24091.45283986  .00000064  00000-0  22148-4 0  9994,2 52495  53.2214 348.5172 0001691  80.1616 279.9568 15.08848174105630,6917.855,95.437,540.89,538.551,0.0
52495.0,STARLINK-3905,PAYLOAD,2024-03-31 21:59:46,15.08848823,0.000157,53.2206,346.4358,98.0448,262.0722,8.046e-05,9.93e-06,0.0,0 STARLINK-3905,1 52495U 22049AW  24091.91651518  .00000993  00000-0  80460-4 0  9997,2 52495  53.2206 346.4358 0001570  98.0448 262.0722 15.08848823105547,6917.853,95.437,540.805,538.632,0.0
52495.0,STARLINK-3905,PAYLOAD,2024-03-31 23:35:09,15.08852827,0.0001588,53.2214,346.1381,100.6089,259.5082,0.00010153,1.329e-05,0.0,0 STARLINK-3905,1 52495U 22049AW  24091.98275204  .00001329  00000-0  10153-3 0  9993,2 52495  53.2214 346.1381 0001588 100.6089 259.5082 15.08852827105559,6917.841,95.437,540.805,538.608,0.0
52495.0,STARLINK-3905,PAYLOAD,2024-04-01 20:15:13,15.08811607,0.00013,53.2205,342.2733,83.6821,276.4319,-8.2692e-05,-1.603e-05,0.0,0 STARLINK-3905,1 52495U 22049AW  24092.84390233 -.00001603  00000-0 -82692-4 0  9994,2 52495  53.2205 342.2733 0001300  83.6821 276.4319 15.08811607105847,6917.967,95.439,540.732,538.933,0.0
52495.0,STARLINK-3905,PAYLOAD,2024-04-02 08:58:18,15.08825473,0.000139,53.2206,339.8959,79.9692,280.1457,-8.4668e-05,-1.635e-05,0.0,0 STARLINK-3905,1 52495U 22049AW  24093.37381955 -.00001635  00000-0 -84668-4 0  9994,2 52495  53.2206 339.8959 0001390  79.9692 280.1457 15.08825473105923,6917.925,95.438,540.751,538.828,0.0
52495.0,STARLINK-3905,PAYLOAD,2024-04-02 20:05:59,15.08836783,0.00013,53.2188,337.8122,83.1996,276.9144,-2.3711e-05,-6.65e-06,0.0,0 STARLINK-3905,1 52495U 22049AW  24093.83749251 -.00000665  00000-0 -23711-4 0  9996,2 52495  53.2188 337.8122 0001300  83.1996 276.9144 15.08836783105996,6917.89,95.438,540.655,538.856,0.0
52495.0,STARLINK-3905,PAYLOAD,2024-04-02 23:16:45,15.08841397,0.0001282,53.2188,337.2189,84.2413,275.8725,2.1728e-05,5.8e-07,0.0,0 STARLINK-3905,1 52495U 22049AW  24093.96996877  .00000058  00000-0  21728-4 0  9998,2 52495  53.2188 337.2189 0001282  84.2413 275.8725 15.08841397105853,6917.876,95.437,540.628,538.854,0.0
52495.0,STARLINK-3905,PAYLOAD,2024-04-03 08:49:03,15.08855095,0.0001314,53.2191,335.4344,78.9884,281.1256,2.9539e-05,1.82e-06,0.0,0 STARLINK-3905,1 52495U 22049AW  24094.36739873  .00000182  00000-0  29539-4 0  9990,2 52495  53.2191 335.4344 0001314  78.9884 281.1256 15.08855095106072,6917.834,95.437,540.608,538.79,0.0
52495.0,STARLINK-3905,PAYLOAD,2024-04-03 23:07:33,15.08824124,0.0001357,53.2204,332.7621,85.1678,274.9469,0.00024917,3.678e-05,0.0,0 STARLINK-3905,1 52495U 22049AW  24094.96357708  .00003678  00000-0  24917-3 0  9996,2 52495  53.2204 332.7621 0001357  85.1678 274.9469 15.08824124106001,6917.929,95.439,540.733,538.855,0.0
